{
	"creator": "Satellites plugin (update)",
        "orbitColor": [0.8, 0, 0],
	"hintColor": [0, 0.5, 0.5],
	"satellites": 
	{
		"UWE-1": 
		{
			"comms": [
			{
				"description": "down/uplink",
				"frequency": 437.505,
				"modulation": "AFSK, 9600 baud"
			}],
			"tle1": "1 28892U 05043C   10011.41208966  .00000105  00000-0  31411-4 0  5277",
			"tle2": "2 28892  98.0328 260.2408 0018374  58.0630 302.2350 14.59806760224221",
			"orbitVisible": false,
			"visible": false
		},
		"HAMSAT (VO-52)": 
		{
			"comms": [
			{
				"description": "Beacon",
				"frequency": 145.86,
				"modulation": "CW"
			}],
			"description": "Amateur satellite",
			"groups": ["amateur"],
			"tle1": "1 28650U 05017B   09080.72416803 -.00000248  00000-0 -24823-4 0  1847",
			"tle2": "2 28650  97.7510 145.1610 0026425 317.3448  42.5717 14.81561809209694",
			"orbitVisible": false,
			"visible": true
		},
		"WEBERSAT (WO-18)": 
		{
			"description": "Amateur satellite",
			"groups": ["amateur", "non-operational"],
			"tle1": "1 20441U 90005F   09080.86048996  .00000029  00000-0  26273-4 0  7816",
			"tle2": "2 20441  98.2526  56.8316 0012586  69.9267 290.3272 14.31886901   720",
			"orbitVisible": false,
			"visible": false
		},
		"SSETI EXPRESS (XO-53)": 
		{
			"description": "Amateur satellite",
			"groups": ["amateur", "non-operational"],
			"tle1": "1 28894U 05043E   09080.73492122  .00000020  00000-0  13815-4 0  4180",
			"tle2": "2 28894  98.0668 333.5116 0016556 264.1886  95.7421 14.59659039181098",
			"orbitVisible": false,
			"visible": false
		}
	},
	"shortName": "satellite orbital data"
}
